satname,norad_id,inclination_deg,eccentricity,mean_motion_rev_per_day,perigee_km,apogee_km,l1,l2
STARLINK-1183,45088,53.0556,0.0001326,15.06410454,546.2612211489159,548.0978150895207,1 45088U 20006AW  25334.37809147  .00002640  00000+0  19602-3 0  9991,2 45088  53.0556 332.4464 0001326  89.4696 270.6445 15.06410454322051
STARLINK-1142,45093,53.0276,0.000834,15.77531926,331.83514225124145,343.0367178986062,1 45093U 20006BB  25334.91670139  .00394000  00000+0  22179-2 0  9990,2 45093  53.0276 249.7602 0008340 134.6191 211.4426 15.77531926  6019
STARLINK-1152,45096,53.048,0.0004184,15.26891685,482.2393500595599,487.9825159298898,1 45096U 20006BE  25334.66333888  .00015349  00000+0  58516-3 0  9993,2 45096  53.0480 309.3114 0004184 341.1034  18.9808 15.26891685322406
STARLINK-1184,45098,53.0547,0.00014,15.06398139,546.2477120444873,548.186811237747,1 45098U 20006BG  25334.72457861  .00000554  00000+0  56065-4 0  9990,2 45098  53.0547 330.8900 0001400  87.2380 272.8769 15.06398139322102
STARLINK-1193,45100,53.0555,0.0001376,15.0640791,546.2343904078598,548.1402396593558,1 45100U 20006BJ  25334.38915784  .00004237  00000+0  30309-3 0  9993,2 45100  53.0555 332.3952 0001376  86.3997 273.7149 15.06407910322059
STARLINK-1143,45179,53.0523,0.0005309,15.44588801,428.97075391447197,436.20238019797307,1 45179U 20012B   25334.64255550  .00023538  00000+0  50555-3 0  9993,2 45179  53.0523  87.2245 0005309 151.8051 208.3243 15.44588801320531
STARLINK-1202,45183,53.0542,0.0001309,15.06398248,546.3103987420282,548.1234564002671,1 45183U 20012F   25334.71721043  .00000278  00000+0  37551-4 0  9999,2 45183  53.0542 130.9257 0001309  91.9300 268.1839 15.06398248319921
STARLINK-1216,45185,53.0535,0.0001177,15.06391428,546.4227133907725,548.0529466257576,1 45185U 20012H   25334.70983487  .00000256  00000+0  36055-4 0  9996,2 45185  53.0535 130.9552 0001177  88.8394 271.2730 15.06391428319865
STARLINK-1225,45187,53.0546,0.0001198,15.06392524,546.4048113940844,548.0641303985103,1 45187U 20012K   25334.72826242 -.00000063  00000+0  14685-4 0  9997,2 45187  53.0546 130.8721 0001198  92.1430 267.9697 15.06392524319916
STARLINK-1230,45189,53.0547,0.0001415,15.06394674,546.2479422785673,548.2078205400067,1 45189U 20012M   25334.73194693  .00000457  00000+0  49582-4 0  9998,2 45189  53.0547 130.8593 0001415  94.9432 265.1719 15.06394674317146
STARLINK-1234,45190,53.0525,0.0003769,15.41129172,440.20473139891055,445.3463352665376,1 45190U 20012N   25334.62438082  .00105118  00000+0  24750-2 0  9999,2 45190  53.0525  81.5633 0003769 304.8224  55.2426 15.41129172320502
STARLINK-1269,45197,53.0539,0.0001281,15.06392306,546.3479988694953,548.1222792115177,1 45197U 20012V   25334.67666074  .00000283  00000+0  37913-4 0  9999,2 45197  53.0539 131.1056 0001281  91.2919 268.8216 15.06392306319880
STARLINK-1154,45198,53.0547,0.0001013,15.06395556,546.5236390030577,547.9267173803601,1 45198U 20012W   25334.80013742 -.00000188  00000+0  62510-5 0  9990,2 45198  53.0547 110.5503 0001013  62.1090 298.0002 15.06395556320158
STARLINK-1199,45201,53.055,0.0001248,15.063939,546.365967789553,548.0945394560576,1 45201U 20012Z   25334.67850154  .00000593  00000+0  58683-4 0  9990,2 45201  53.0550 111.0983 0001248  86.5983 273.5149 15.06393900320191
STARLINK-1209,45206,53.0511,0.0004394,15.34723208,458.73732334291435,464.7482096817257,1 45206U 20012AE  25334.91670139  .00060661  00000+0  17732-2 0  9995,2 45206  53.0511  82.1320 0004394 315.1055 301.8938 15.34723208  5765
STARLINK-1210,45207,53.0221,0.000397,15.64614626,371.66658064465173,377.02805319228446,1 45207U 20012AF  25334.91670139  .00111454  00000+0  11210-2 0  9998,2 45207  53.0221  38.0624 0003970 145.4381 163.3941 15.64614626  5992
STARLINK-1231,45212,53.0491,0.0005878,15.14295106,519.0628294892431,527.1759464989691,1 45212U 20012AL  25334.75492464  .00046112  00000+0  24893-2 0  9998,2 45212  53.0491 107.6308 0005878 134.4598 225.6876 15.14295106320202
STARLINK-1271,45217,53.0548,0.0001252,15.06397184,546.3531338661323,548.0872433061559,1 45217U 20012AR  25334.79645148  .00000677  00000+0  64361-4 0  9998,2 45217  53.0548 110.5675 0001252  85.0848 275.0284 15.06397184320214
STARLINK-1191,45222,53.0542,0.0001403,15.06401858,546.2342378379899,548.1774890454717,1 45222U 20012AW  25334.60661888 -.00002406  00000+0 -14267-3 0  9996,2 45222  53.0542  91.4195 0001403  97.5258 262.5891 15.06401858320465
STARLINK-1212,45223,53.0555,0.0001475,15.06390335,546.2196866480999,548.2626732111794,1 45223U 20012AX  25334.62515218  .00000662  00000+0  63342-4 0  9993,2 45223  53.0555  91.9915 0001475  94.7400 265.3758 15.06390335320462
STARLINK-1215,45225,53.0548,0.0001296,15.0639176,546.3392840205224,548.1343409127139,1 45225U 20012AZ  25334.71351562  .00000175  00000+0  30628-4 0  9995,2 45225  53.0548  90.9379 0001296  83.1546 276.9590 15.06391760320435
STARLINK-1221,45227,53.0686,0.0005051,15.37975806,448.64583786592357,455.54573902881293,1 45227U 20012BB  25334.41950437  .00016722  00000+0  45040-3 0  9998,2 45227  53.0686  18.6093 0005051  60.9044 299.2464 15.37975806321419
STARLINK-1222,45228,53.0541,0.0001191,15.10985606,532.3697522498678,534.0160310300562,1 45228U 20012BC  25334.91670139 -.00021967  00000+0 -12874-2 0  9999,2 45228  53.0541  89.8916 0001191  75.1847 197.2127 15.10985606  5382
STARLINK-1226,45229,53.0548,0.000114,15.06394038,546.4403388511628,548.0193224885543,1 45229U 20012BD  25334.64348394 -.00000482  00000+0 -13504-4 0  9997,2 45229  53.0548  91.2511 0001140  86.8600 273.2519 15.06394038320364
STARLINK-1227,45230,53.0549,0.0001213,15.06390825,546.3996299435039,548.079726325619,1 45230U 20012BE  25334.70615208  .00000313  00000+0  39882-4 0  9995,2 45230  53.0549  90.9717 0001213 106.9581 253.1541 15.06390825320490
STARLINK-1246,45235,53.0546,0.0001371,15.06401879,546.2563345821354,548.1552635776425,1 45235U 20012BK  25334.72090208 -.00001138  00000+0 -57540-4 0  9998,2 45235  53.0546 130.9058 0001371  86.1923 273.9222 15.06401879319945
STARLINK-1270,45237,53.0542,0.0001379,15.0638974,546.2879936365571,548.1980134415326,1 45237U 20012BM  25334.59188187  .00001742  00000+0  13582-3 0  9995,2 45237  53.0542  91.4844 0001379  96.2423 263.8723 15.06389740320467
STARLINK-1279,45360,53.0501,0.0009194,15.39006669,442.76850222338,455.32232524575466,1 45360U 20019A   25334.82636117  .00068903  00000+0  17496-2 0  9995,2 45360  53.0501 211.4017 0009194 109.4953 250.7044 15.39006669315369
STARLINK-1301,45361,53.0504,0.0008685,15.41793873,434.89270312109056,446.7372226806492,1 45361U 20019B   25334.80337551  .00072265  00000+0  16728-2 0  9997,2 45361  53.0504 220.6748 0008685 103.1378 257.0596 15.41793873315244
STARLINK-1306,45362,53.0404,0.0005002,15.81945884,321.58533876767433,328.2910952147531,1 45362U 20019C   25334.91670139  .00159579  00000+0  75804-3 0  9997,2 45362  53.0404 202.3077 0005002  84.2538 294.3296 15.81945884  6044
STARLINK-1262,45366,53.0553,0.0001871,15.06384797,545.9624119023329,548.55389476871,1 45366U 20019G   25334.76882031  .00000638  00000+0  61744-4 0  9990,2 45366  53.0553 250.6891 0001871  84.7366 275.3836 15.06384797314821
STARLINK-1273,45367,53.0528,0.0001783,15.06393318,545.9972440822294,548.4668306809599,1 45367U 20019H   25334.79092772 -.00000382  00000+0 -67666-5 0  9997,2 45367  53.0528 250.5892 0001783  95.7152 264.4041 15.06393318314827
STARLINK-1276,45368,53.0536,0.0001481,15.06405374,546.1694457690892,548.2207291333925,1 45368U 20019J   25334.49605165  .00002979  00000+0  21876-3 0  9994,2 45368  53.0536 251.9142 0001481  91.8575 268.2584 15.06405374314786
STARLINK-1277,45369,53.0537,0.0001354,15.06402112,546.2673936517194,548.1427762883295,1 45369U 20019K   25334.75414079 -.00000599  00000+0 -21339-4 0  9999,2 45369  53.0537 251.3830 0001354  93.5669 266.5475 15.06402112314819
STARLINK-1281,45370,53.0532,0.0001398,15.06425034,546.1666803940589,548.102986398676,1 45370U 20019L   25334.08690747  .00008776  00000+0  60693-3 0  9993,2 45370  53.0532 253.7541 0001398  99.1053 261.0095 15.06425034314724
STARLINK-1300,45374,53.0525,0.000297,15.06398552,545.1591660135136,549.2728256930504,1 45374U 20019Q   25334.77250149 -.00000386  00000+0 -69574-5 0  9991,2 45374  53.0525 250.6760 0002970  79.0486 281.0837 15.06398552314824
STARLINK-1302,45375,53.0546,0.0001774,15.06423419,545.9112389047905,548.3683271074024,1 45375U 20019R   25334.19012264  .00013078  00000+0  89469-3 0  9995,2 45375  53.0546 253.2882 0001774  90.5925 269.5267 15.06423419314738
STARLINK-1304,45376,53.0558,0.0002516,15.0640016,545.468649987567,548.9534851351636,1 45376U 20019S   25334.80567256 -.00001116  00000+0 -55974-4 0  9997,2 45376  53.0558 250.5274 0002516 115.7523 244.3725 15.06400160314824
STARLINK-1305,45377,53.0533,0.0008038,15.35541628,453.8162419816608,464.80812528927345,1 45377U 20019T   25334.47511480  .00058271  00000+0  16594-2 0  9994,2 45377  53.0533 244.0237 0008038  97.5753 262.6162 15.35541628314894
STARLINK-1319,45379,53.0532,0.000688,15.4040946,440.20570192413743,449.59420076919105,1 45379U 20019V   25334.73014985  .00065735  00000+0  15960-2 0  9992,2 45379  53.0532 244.2468 0006880 105.0875 255.0890 15.40409460314916
STARLINK-1266,45383,53.0544,0.0001574,15.06414653,546.0766061733802,548.2566917620743,1 45383U 20019Z   25334.16248046  .00009555  00000+0  65925-3 0  9996,2 45383  53.0544 233.4159 0001574  84.7924 275.3245 15.06414653315006
STARLINK-1267,45384,53.0523,0.0001627,15.06411965,546.0481389352326,548.3016354233196,1 45384U 20019AA  25334.41320361  .00004295  00000+0  30697-3 0  9990,2 45384  53.0523 232.9431 0001627  83.8566 276.2608 15.06411965315031
STARLINK-1272,45386,53.0525,0.0008692,15.38671822,444.10082124189375,455.97091695753625,1 45386U 20019AC  25334.81365720  .00065935  00000+0  16940-2 0  9996,2 45386  53.0525 222.0058 0008692 108.9982 251.1964 15.38671822315223
